{"type": "FeatureCollection", "features": [ {"type": "Feature", "properties": {"norad_id": 43010, "name": "FENGYUN 3D", "group": "weather", "lat": 59.85112361411792, "lon": -64.82946736194116, "alt_km": 820.9287045981891, "timestamp": "2025-12-10T16:57:11.277729+00:00", "meta": {"OBJECT_NAME": "FENGYUN 3D", "OBJECT_ID": "2017-072A", "EPOCH": "2025-12-10T11:35:30.889824", "MEAN_MOTION": 14.1968171, "ECCENTRICITY": 7.95e-05, "INCLINATION": 98.9893, "RA_OF_ASC_NODE": 310.759, "ARG_OF_PERICENTER": 188.8669, "MEAN_ANOMALY": 171.2492, "EPHEMERIS_TYPE": 0, "CLASSIFICATION_TYPE": "U", "NORAD_CAT_ID": 43010, "ELEMENT_SET_NO": 999, "REV_AT_EPOCH": 41821, "BSTAR": 1.5338e-05, "MEAN_MOTION_DOT": -1.4e-07, "MEAN_MOTION_DDOT": 0}, "tle": {"line1": "1 43010U 17072A   25344.48299641 -.00000014  00000+0  15338-4 0  9995", "line2": "2 43010  98.9893 310.7590 0000795 188.8669 171.2492 14.19681710418218"}}, "geometry": {"type": "Point", "coordinates": [-64.82946736194116, 59.85112361411792]}}, {"type": "Feature", "properties": {"norad_id": 43013, "name": "NOAA 20 (JPSS-1)", "group": "weather", "lat": -34.35936628949209, "lon": 94.97445583401907, "alt_km": 834.0111347507491, "timestamp": "2025-12-10T16:57:11.277747+00:00", "meta": {"OBJECT_NAME": "NOAA 20 (JPSS-1)", "OBJECT_ID": "2017-073A", "EPOCH": "2025-12-10T10:52:11.767008", "MEAN_MOTION": 14.19524754, "ECCENTRICITY": 0.0002149, "INCLINATION": 98.7596, "RA_OF_ASC_NODE": 280.7747, "ARG_OF_PERICENTER": 90.4862, "MEAN_ANOMALY": 269.656, "EPHEMERIS_TYPE": 0, "CLASSIFICATION_TYPE": "U", "NORAD_CAT_ID": 43013, "ELEMENT_SET_NO": 999, "REV_AT_EPOCH": 41769, "BSTAR": 0.00010248, "MEAN_MOTION_DOT": 1.72e-06, "MEAN_MOTION_DDOT": 0}, "tle": {"line1": "1 43013U 17073A   25344.45291397  .00000172  00000+0  10248-3 0  9994", "line2": "2 43013  98.7596 280.7747 0002149  90.4862 269.6560 14.19524754417690"}}, "geometry": {"type": "Point", "coordinates": [94.97445583401907, -34.35936628949209]}}, {"type": "Feature", "properties": {"norad_id": 43226, "name": "GOES 17", "group": "weather", "lat": 0.17053103933177916, "lon": -115.54261463014159, "alt_km": 35773.96640321759, "timestamp": "2025-12-10T16:57:11.277767+00:00", "meta": {"OBJECT_NAME": "GOES 17", "OBJECT_ID": "2018-022A", "EPOCH": "2025-12-10T05:31:38.713152", "MEAN_MOTION": 1.00271633, "ECCENTRICITY": 0.0003374, "INCLINATION": 0.4537, "RA_OF_ASC_NODE": 89.1429, "ARG_OF_PERICENTER": 186.9948, "MEAN_ANOMALY": 156.4873, "EPHEMERIS_TYPE": 0, "CLASSIFICATION_TYPE": "U", "NORAD_CAT_ID": 43226, "ELEMENT_SET_NO": 999, "REV_AT_EPOCH": 2852, "BSTAR": 0, "MEAN_MOTION_DOT": -1.79e-06, "MEAN_MOTION_DDOT": 0}, "tle": {"line1": "1 43226U 18022A   25344.23030918 -.00000179  00000+0  00000+0 0  9990", "line2": "2 43226   0.4537  89.1429 0003374 186.9948 156.4873  1.00271633 28527"}}, "geometry": {"type": "Point", "coordinates": [-115.54261463014159, 0.17053103933177916]}}, {"type": "Feature", "properties": {"norad_id": 43491, "name": "FENGYUN 2H", "group": "weather", "lat": -1.1772253825098544, "lon": 53.363962207591264, "alt_km": 35798.55611437928, "timestamp": "2025-12-10T16:57:11.277782+00:00", "meta": {"OBJECT_NAME": "FENGYUN 2H", "OBJECT_ID": "2018-050A", "EPOCH": "2025-12-10T08:41:38.596992", "MEAN_MOTION": 1.00271007, "ECCENTRICITY": 0.0002934, "INCLINATION": 2.5447, "RA_OF_ASC_NODE": 81.3483, "ARG_OF_PERICENTER": 165.0565, "MEAN_ANOMALY": 42.705, "EPHEMERIS_TYPE": 0, "CLASSIFICATION_TYPE": "U", "NORAD_CAT_ID": 43491, "ELEMENT_SET_NO": 999, "REV_AT_EPOCH": 2754, "BSTAR": 0, "MEAN_MOTION_DOT": -1.26e-06, "MEAN_MOTION_DDOT": 0}, "tle": {"line1": "1 43491U 18050A   25344.36225228 -.00000126  00000+0  00000+0 0  9991", "line2": "2 43491   2.5447  81.3483 0002934 165.0565  42.7050  1.00271007 27542"}}, "geometry": {"type": "Point", "coordinates": [53.363962207591264, -1.1772253825098544]}}, {"type": "Feature", "properties": {"norad_id": 43689, "name": "METOP-C", "group": "weather", "lat": -18.48743186798211, "lon": 45.439397599298715, "alt_km": 824.7835245606793, "timestamp": "2025-12-10T16:57:11.277793+00:00", "meta": {"OBJECT_NAME": "METOP-C", "OBJECT_ID": "2018-087A", "EPOCH": "2025-12-10T10:17:01.449600", "MEAN_MOTION": 14.21510464, "ECCENTRICITY": 0.0001439, "INCLINATION": 98.6933, "RA_OF_ASC_NODE": 42.2335, "ARG_OF_PERICENTER": 46.6144, "MEAN_ANOMALY": 313.5153, "EPHEMERIS_TYPE": 0, "CLASSIFICATION_TYPE": "U", "NORAD_CAT_ID": 43689, "ELEMENT_SET_NO": 999, "REV_AT_EPOCH": 36801, "BSTAR": 0.00011941, "MEAN_MOTION_DOT": 2.18e-06, "MEAN_MOTION_DDOT": 0}, "tle": {"line1": "1 43689U 18087A   25344.42848900  .00000218  00000+0  11941-3 0  9996", "line2": "2 43689  98.6933  42.2335 0001439  46.6144 313.5153 14.21510464368018"}}, "geometry": {"type": "Point", "coordinates": [45.439397599298715, -18.48743186798211]}}, {"type": "Feature", "properties": {"norad_id": 43823, "name": "GEO-KOMPSAT-2A", "group": "weather", "lat": -0.000408963264720758, "lon": 102.22895736935712, "alt_km": 35786.671857926034, "timestamp": "2025-12-10T16:57:11.277812+00:00", "meta": {"OBJECT_NAME": "GEO-KOMPSAT-2A", "OBJECT_ID": "2018-100A", "EPOCH": "2025-12-09T23:29:38.510880", "MEAN_MOTION": 1.00269688, "ECCENTRICITY": 1.166e-05, "INCLINATION": 0.0417, "RA_OF_ASC_NODE": 144.825, "ARG_OF_PERICENTER": 34.8694, "MEAN_ANOMALY": 19.9414, "EPHEMERIS_TYPE": 0, "CLASSIFICATION_TYPE": "U", "NORAD_CAT_ID": 43823, "ELEMENT_SET_NO": 999, "REV_AT_EPOCH": 2573, "BSTAR": 0, "MEAN_MOTION_DOT": -3.41e-06, "MEAN_MOTION_DDOT": 0}, "tle": {"line1": "1 43823U 18100A   25343.97891795 -.00000341  00000+0  00000+0 0  9999", "line2": "2 43823   0.0417 144.8250 0000116  34.8694  19.9414  1.00269688 25735"}}, "geometry": {"type": "Point", "coordinates": [102.22895736935712, -0.000408963264720758]}}, {"type": "Feature", "properties": {"norad_id": 44387, "name": "METEOR-M2 2", "group": "weather", "lat": 34.34020389315901, "lon": -41.73364494188562, "alt_km": 808.9638217500124, "timestamp": "2025-12-10T16:57:11.277824+00:00", "meta": {"OBJECT_NAME": "METEOR-M2 2", "OBJECT_ID": "2019-038A", "EPOCH": "2025-12-10T11:43:55.812288", "MEAN_MOTION": 14.24290569, "ECCENTRICITY": 0.000115, "INCLINATION": 98.8972, "RA_OF_ASC_NODE": 324.1896, "ARG_OF_PERICENTER": 151.6949, "MEAN_ANOMALY": 208.4292, "EPHEMERIS_TYPE": 0, "CLASSIFICATION_TYPE": "U", "NORAD_CAT_ID": 44387, "ELEMENT_SET_NO": 999, "REV_AT_EPOCH": 33443, "BSTAR": 0.00021072, "MEAN_MOTION_DOT": 4.41e-06, "MEAN_MOTION_DDOT": 0}, "tle": {"line1": "1 44387U 19038A   25344.48884042  .00000441  00000+0  21072-3 0  9996", "line2": "2 44387  98.8972 324.1896 0001150 151.6949 208.4292 14.24290569334432"}}, "geometry": {"type": "Point", "coordinates": [-41.73364494188562, 34.34020389315901]}}, {"type": "Feature", "properties": {"norad_id": 47719, "name": "ARKTIKA-M 1", "group": "weather", "lat": 56.920828346198135, "lon": 135.20474609794474, "alt_km": 33568.42352848769, "timestamp": "2025-12-10T16:57:11.277837+00:00", "meta": {"OBJECT_NAME": "ARKTIKA-M 1", "OBJECT_ID": "2021-016A", "EPOCH": "2025-12-09T14:03:23.859648", "MEAN_MOTION": 2.00631311, "ECCENTRICITY": 0.7202538, "INCLINATION": 63.1769, "RA_OF_ASC_NODE": 84.4506, "ARG_OF_PERICENTER": 269.1116, "MEAN_ANOMALY": 15.6235, "EPHEMERIS_TYPE": 0, "CLASSIFICATION_TYPE": "U", "NORAD_CAT_ID": 47719, "ELEMENT_SET_NO": 999, "REV_AT_EPOCH": 3498, "BSTAR": 0, "MEAN_MOTION_DOT": -6.1e-07, "MEAN_MOTION_DDOT": 0}, "tle": {"line1": "1 47719U 21016A   25343.58569282 -.00000061  00000+0  00000+0 0  9996", "line2": "2 47719  63.1769  84.4506 7202538 269.1116  15.6235  2.00631311 34985"}}, "geometry": {"type": "Point", "coordinates": [135.20474609794474, 56.920828346198135]}}, {"type": "Feature", "properties": {"norad_id": 49008, "name": "FENGYUN 3E", "group": "weather", "lat": 26.059860855708322, "lon": -19.066856639901687, "alt_km": 824.8745278298629, "timestamp": "2025-12-10T16:57:11.277848+00:00", "meta": {"OBJECT_NAME": "FENGYUN 3E", "OBJECT_ID": "2021-062A", "EPOCH": "2025-12-10T11:45:19.905408", "MEAN_MOTION": 14.19880315, "ECCENTRICITY": 5.95e-05, "INCLINATION": 98.7475, "RA_OF_ASC_NODE": 345.0373, "ARG_OF_PERICENTER": 286.3832, "MEAN_ANOMALY": 73.7279, "EPHEMERIS_TYPE": 0, "CLASSIFICATION_TYPE": "U", "NORAD_CAT_ID": 49008, "ELEMENT_SET_NO": 999, "REV_AT_EPOCH": 22980, "BSTAR": 0.00018535, "MEAN_MOTION_DOT": 3.49e-06, "MEAN_MOTION_DDOT": 0}, "tle": {"line1": "1 49008U 21062A   25344.48981372  .00000349  00000+0  18535-3 0  9992", "line2": "2 49008  98.7475 345.0373 0000595 286.3832  73.7279 14.19880315229805"}}, "geometry": {"type": "Point", "coordinates": [-19.066856639901687, 26.059860855708322]}}, {"type": "Feature", "properties": {"norad_id": 51850, "name": "GOES 18", "group": "weather", "lat": -0.012988307124619866, "lon": -163.0380127130919, "alt_km": 35787.019280034554, "timestamp": "2025-12-10T16:57:11.277860+00:00", "meta": {"OBJECT_NAME": "GOES 18", "OBJECT_ID": "2022-021A", "EPOCH": "2025-12-10T10:20:14.970048", "MEAN_MOTION": 1.00271533, "ECCENTRICITY": 7.06e-05, "INCLINATION": 0.0393, "RA_OF_ASC_NODE": 171.4531, "ARG_OF_PERICENTER": 133.1445, "MEAN_ANOMALY": 152.8693, "EPHEMERIS_TYPE": 0, "CLASSIFICATION_TYPE": "U", "NORAD_CAT_ID": 51850, "ELEMENT_SET_NO": 999, "REV_AT_EPOCH": 470, "BSTAR": 0, "MEAN_MOTION_DOT": 1.01e-06, "MEAN_MOTION_DDOT": 0}, "tle": {"line1": "1 51850U 22021A   25344.43072882  .00000101  00000+0  00000+0 0  9998", "line2": "2 51850   0.0393 171.4531 0000706 133.1445 152.8693  1.00271533  4709"}}, "geometry": {"type": "Point", "coordinates": [-163.0380127130919, -0.012988307124619866]}}]}